#aV2009  4 14  0  0   .00000000      96 DD+AD WGS84 FIT  NGA
## 1527 172800.00000000   900.00000000 54935  .0000000000000
+   31     2  3  4  5  6  7  8  9 10 11 12 13 14 15 16 17 18
+         19 20 21 22 23 24 25 26 27 28 29 30 31 32  0  0  0
+          0  0  0  0  0  0  0  0  0  0  0  0  0  0  0  0  0
+          0  0  0  0  0  0  0  0  0  0  0  0  0  0  0  0  0
+          0  0  0  0  0  0  0  0  0  0  0  0  0  0  0  0  0
++         0  0  0  0  0  0  0  0  0  0  0  0  0  0  0  0  0
++         0  0  0  0  0  0  0  0  0  0  0  0  0  0  0  0  0
++         0  0  0  0  0  0  0  0  0  0  0  0  0  0  0  0  0
++         0  0  0  0  0  0  0  0  0  0  0  0  0  0  0  0  0
++         0  0  0  0  0  0  0  0  0  0  0  0  0  0  0  0  0
%c cc cc ccc ccc cccc cccc cccc cccc ccccc ccccc ccccc ccccc
%c cc cc ccc ccc cccc cccc cccc cccc ccccc ccccc ccccc ccccc
%f  0.0000000  0.000000000  0.00000000000  0.000000000000000
%f  0.0000000  0.000000000  0.00000000000  0.000000000000000
%i    0    0    0    0      0      0      0      0         0
%i    0    0    0    0      0      0      0      0         0
/*      NGA, ST. LOUIS,MO.                                  
/*   EPHEMERIS COMPUTED FROM  3 DAYS OF DATA                
/* CCCCCCCCCCCCCCCCCCCCCCCCCCCCCCCCCCCCCCCCCCCCCCCCCCCCCCCCC
/* CCCCCCCCCCCCCCCCCCCCCCCCCCCCCCCCCCCCCCCCCCCCCCCCCCCCCCCCC
*  2009  4 14 12 45   .00000000                                                 
P  2  10095.088195 -13711.146391  20181.823302    153.578583                    
V  2  25756.726754   4024.298142 -10500.933975      -.001287                    
P  3  -7897.535030  24221.824444  -7133.231824    379.433913                    
V  3  -7819.928079   5631.822530  29380.983223       .052400                    
P  4  22233.799730  -6835.531364  13019.185286    -51.346426                    
V  4  16220.378433   4516.616551 -24710.472537      -.149252                    
P  5 -14952.532782 -21673.514273   3650.373972    -34.667505                    
V  5    381.941503  -5913.317395 -30877.677557      -.126621                    
P  6 -13120.313154  22890.046434  -2636.809896     79.970793                    
V  6  -5081.573056    904.687890  30933.116019       .171909                    
P  7  24958.753265   7060.102074   5970.326661     20.390440                    
V  7  -7807.804338   1537.352495  30611.622794      -.005618                    
P  8  25802.248445   -347.267171  -7365.531135   -198.439525                    
V  8   8742.809952   2999.567549  30219.758966      -.016762                    
P  9 -12100.446613 -14261.866843 -19547.737161     50.702372                    
V  9  23370.429201    994.085816 -15624.462690       .019689                    
P 10    395.486023 -23015.899262  12781.727200    -14.337496                    
V 10   8647.652251  14444.482108  25752.244623      -.006675                    
P 11  14695.280068  13281.930189 -18038.951055      1.224372                    
V 11 -22370.637019   4375.049522 -14816.522562      -.014113                    
P 12 -12281.773107 -23433.759503   3056.120713   -294.289384                    
V 12    837.262411  -4459.241890 -31485.553121       .047596                    
P 13  14906.690328   3929.198476  21500.233840    294.475329                    
V 13 -17305.126807  21393.312614   8047.512737       .010622                    
P 14 -20041.665299  13097.031397 -11258.823229   -125.966413                    
V 14   7686.422696 -12396.255178 -27917.970628       .057445                    
P 15   3105.617137 -21902.645132 -14631.456072   -280.998278                    
V 15  12737.272827 -13810.525766  23397.759012      -.043126                    
P 16  -4458.899493  19942.197879  16899.403244     59.501405                    
V 16  -9708.012252 -19171.409399  20367.049110      -.031313                    
P 17  20123.276794 -11480.695133 -12749.925871     54.249183                    
V 17  -8038.723016  14471.599968 -25774.516098       .016211                    
P 18 -17464.469386  -8427.001991 -18087.526713    -65.693115                    
V 18  -7044.610467 -22311.716207  16625.296853       .033910                    
P 19  -2272.809193  20466.868176 -16571.094222     28.330569                    
V 19 -15464.039488  14751.965667  20500.793292      -.009221                    
P 20  13928.879347  22122.273203   4696.934595     85.368443                    
V 20   -436.378480   6950.533586 -30554.668372      -.010395                    
P 21 -26313.965978  -5242.482008   2232.047072     19.299061                    
V 21   2892.485733  -2699.445030  30595.996728      -.019749                    
P 22 -15199.594811   3794.508980 -21297.288873    201.643032                    
V 22  -9753.440568 -25691.357400   2300.548938      -.008628                    
P 23   7413.636490  14169.429187  21104.754160    389.379645                    
V 23 -16840.319204  21047.994312  -8464.052337       .003090                    
P 24 -18085.774499 -13271.252860  14147.588028    181.220587                    
V 24  18035.493945    493.917142  24000.359088       .029110                    
P 25  20921.602055   9644.930688  13389.801073    358.803959                    
V 25 -16532.462926   1702.563094  25458.346235       .211598                    
P 26    332.790347 -19305.629461 -18545.459948     56.706564                    
V 26  15317.669395 -16597.678667  18602.322268       .018730                    
P 27   4074.070688 -14300.022163 -21362.942881     40.777172                    
V 27  28593.600835   1982.119259   3954.164782       .032597                    
P 28  15513.700652   -571.035955 -21162.500879    -23.993380                    
V 28   9865.639318  26020.016641   6091.957940      -.001877                    
P 29 -14605.966817  -5789.178518  21517.694957      9.511646                    
V 29  16323.333536 -21611.213821   5329.069569       .042026                    
P 30 -17291.610367 -15863.066173  12158.992263    139.199044                    
V 30  -4600.828486 -15546.835050 -25968.875317       .026562                    
P 31 -20267.755015   8228.393585  15373.450465    -57.654701                    
V 31 -18758.281934  -3761.520619 -22895.945379      -.010852                    
P 32   7247.042630  25599.331450  -1779.352777    274.776388                    
V 32  -3247.842844  -1788.254958 -31567.718420      -.048915                    
EOF
